{"type": "FeatureCollection", "features": [ {"type": "Feature", "properties": {"norad_id": 43683, "name": "BEIDOU-3 G1 (C59)", "group": "gnss", "lat": 2.447496086748962, "lon": -148.39813400651113, "alt_km": 35780.46909506939, "timestamp": "2025-12-08T23:34:04.212501+00:00", "meta": {"OBJECT_NAME": "BEIDOU-3 G1 (C59)", "OBJECT_ID": "2018-085A", "EPOCH": "2025-12-08T14:16:10.918848", "MEAN_MOTION": 1.00272096, "ECCENTRICITY": 0.00017838, "INCLINATION": 2.5971, "RA_OF_ASC_NODE": 103.0649, "ARG_OF_PERICENTER": 63.1006, "MEAN_ANOMALY": 265.5494, "EPHEMERIS_TYPE": 0, "CLASSIFICATION_TYPE": "U", "NORAD_CAT_ID": 43683, "ELEMENT_SET_NO": 999, "REV_AT_EPOCH": 2614, "BSTAR": 0, "MEAN_MOTION_DOT": -2.75e-06, "MEAN_MOTION_DDOT": 0}, "tle": {"line1": "1 43683U 18085A   25342.59457082 -.00000275  00000+0  00000+0 0  9995", "line2": "2 43683   2.5971 103.0649 0001783  63.1006 265.5494  1.00272096 26143"}}, "geometry": {"type": "Point", "coordinates": [-148.39813400651113, 2.447496086748962]}}, {"type": "Feature", "properties": {"norad_id": 43687, "name": "COSMOS 2529 (757)", "group": "gnss", "lat": -54.992953186665105, "lon": 62.48183221244869, "alt_km": 19117.88914548518, "timestamp": "2025-12-08T23:34:04.212517+00:00", "meta": {"OBJECT_NAME": "COSMOS 2529 (757)", "OBJECT_ID": "2018-086A", "EPOCH": "2025-12-08T04:37:38.472960", "MEAN_MOTION": 2.13101938, "ECCENTRICITY": 0.0007175, "INCLINATION": 64.2918, "RA_OF_ASC_NODE": 199.0421, "ARG_OF_PERICENTER": 254.1873, "MEAN_ANOMALY": 105.8121, "EPHEMERIS_TYPE": 0, "CLASSIFICATION_TYPE": "U", "NORAD_CAT_ID": 43687, "ELEMENT_SET_NO": 999, "REV_AT_EPOCH": 5521, "BSTAR": 0, "MEAN_MOTION_DOT": 5e-07, "MEAN_MOTION_DDOT": 0}, "tle": {"line1": "1 43687U 18086A   25342.19280640  .00000050  00000+0  00000+0 0  9990", "line2": "2 43687  64.2918 199.0421 0007175 254.1873 105.8121  2.13101938 55215"}}, "geometry": {"type": "Point", "coordinates": [62.48183221244869, -54.992953186665105]}}, {"type": "Feature", "properties": {"norad_id": 43706, "name": "BEIDOU-3 M17 (C36)", "group": "gnss", "lat": -12.220479583277504, "lon": 17.76036343486036, "alt_km": 21536.61288724428, "timestamp": "2025-12-08T23:34:04.212529+00:00", "meta": {"OBJECT_NAME": "BEIDOU-3 M17 (C36)", "OBJECT_ID": "2018-093A", "EPOCH": "2025-12-07T14:48:21.849120", "MEAN_MOTION": 1.86228285, "ECCENTRICITY": 0.00062807, "INCLINATION": 54.1726, "RA_OF_ASC_NODE": 188.7957, "ARG_OF_PERICENTER": 306.8876, "MEAN_ANOMALY": 53.1241, "EPHEMERIS_TYPE": 0, "CLASSIFICATION_TYPE": "U", "NORAD_CAT_ID": 43706, "ELEMENT_SET_NO": 999, "REV_AT_EPOCH": 4797, "BSTAR": 0, "MEAN_MOTION_DOT": 5.7e-07, "MEAN_MOTION_DDOT": 0}, "tle": {"line1": "1 43706U 18093A   25341.61691955  .00000057  00000+0  00000+0 0  9998", "line2": "2 43706  54.1726 188.7957 0006280 306.8876  53.1241  1.86228285 47971"}}, "geometry": {"type": "Point", "coordinates": [17.76036343486036, -12.220479583277504]}}, {"type": "Feature", "properties": {"norad_id": 43707, "name": "BEIDOU-3 M18 (C37)", "group": "gnss", "lat": -50.423143539370244, "lon": 127.79980538295803, "alt_km": 21526.29115213034, "timestamp": "2025-12-08T23:34:04.212540+00:00", "meta": {"OBJECT_NAME": "BEIDOU-3 M18 (C37)", "OBJECT_ID": "2018-093B", "EPOCH": "2025-12-08T00:22:06.139776", "MEAN_MOTION": 1.86226539, "ECCENTRICITY": 0.00063651, "INCLINATION": 54.1733, "RA_OF_ASC_NODE": 188.774, "ARG_OF_PERICENTER": 352.0648, "MEAN_ANOMALY": 7.9918, "EPHEMERIS_TYPE": 0, "CLASSIFICATION_TYPE": "U", "NORAD_CAT_ID": 43707, "ELEMENT_SET_NO": 999, "REV_AT_EPOCH": 4797, "BSTAR": 0, "MEAN_MOTION_DOT": 5.3e-07, "MEAN_MOTION_DDOT": 0}, "tle": {"line1": "1 43707U 18093B   25342.01534884  .00000053  00000+0  00000+0 0  9997", "line2": "2 43707  54.1733 188.7740 0006365 352.0648   7.9918  1.86226539 47972"}}, "geometry": {"type": "Point", "coordinates": [127.79980538295803, -50.423143539370244]}}, {"type": "Feature", "properties": {"norad_id": 43873, "name": "GPS BIII-1  (PRN 04)", "group": "gnss", "lat": -38.72393518809141, "lon": 66.3565775901845, "alt_km": 20230.78927351041, "timestamp": "2025-12-08T23:34:04.212552+00:00", "meta": {"OBJECT_NAME": "GPS BIII-1  (PRN 04)", "OBJECT_ID": "2018-109A", "EPOCH": "2025-12-08T13:41:32.072640", "MEAN_MOTION": 2.00553358, "ECCENTRICITY": 0.00372104, "INCLINATION": 55.5654, "RA_OF_ASC_NODE": 99.7112, "ARG_OF_PERICENTER": 194.8122, "MEAN_ANOMALY": 178.3596, "EPHEMERIS_TYPE": 0, "CLASSIFICATION_TYPE": "U", "NORAD_CAT_ID": 43873, "ELEMENT_SET_NO": 999, "REV_AT_EPOCH": 5125, "BSTAR": 0, "MEAN_MOTION_DOT": 6e-08, "MEAN_MOTION_DDOT": 0}, "tle": {"line1": "1 43873U 18109A   25342.57051010  .00000006  00000+0  00000+0 0  9993", "line2": "2 43873  55.5654  99.7112 0037210 194.8122 178.3596  2.00553358 51259"}}, "geometry": {"type": "Point", "coordinates": [66.3565775901845, -38.72393518809141]}}, {"type": "Feature", "properties": {"norad_id": 44204, "name": "BEIDOU-3 IGSO-1 (C38)", "group": "gnss", "lat": 29.229941458645715, "lon": -160.44902890791957, "alt_km": 35763.15573068482, "timestamp": "2025-12-08T23:34:04.212567+00:00", "meta": {"OBJECT_NAME": "BEIDOU-3 IGSO-1 (C38)", "OBJECT_ID": "2019-023A", "EPOCH": "2025-11-19T14:15:02.708640", "MEAN_MOTION": 1.00252177, "ECCENTRICITY": 0.0026966, "INCLINATION": 58.4003, "RA_OF_ASC_NODE": 39.8168, "ARG_OF_PERICENTER": 221.2202, "MEAN_ANOMALY": 126.9723, "EPHEMERIS_TYPE": 0, "CLASSIFICATION_TYPE": "U", "NORAD_CAT_ID": 44204, "ELEMENT_SET_NO": 999, "REV_AT_EPOCH": 510, "BSTAR": 0, "MEAN_MOTION_DOT": -2.26e-06, "MEAN_MOTION_DDOT": 0}, "tle": {"line1": "1 44204U 19023A   25323.59378135 -.00000226  00000+0  00000+0 0  9994", "line2": "2 44204  58.4003  39.8168 0026966 221.2202 126.9723  1.00252177  5102"}}, "geometry": {"type": "Point", "coordinates": [-160.44902890791957, 29.229941458645715]}}, {"type": "Feature", "properties": {"norad_id": 44231, "name": "BEIDOU-2 G8 (C01)", "group": "gnss", "lat": 1.0179792688271452, "lon": -144.04282327898486, "alt_km": 35801.61602797179, "timestamp": "2025-12-08T23:34:04.212582+00:00", "meta": {"OBJECT_NAME": "BEIDOU-2 G8 (C01)", "OBJECT_ID": "2019-027A", "EPOCH": "2025-12-08T14:17:33.288288", "MEAN_MOTION": 1.00268953, "ECCENTRICITY": 0.00086273, "INCLINATION": 1.6514, "RA_OF_ASC_NODE": 74.7245, "ARG_OF_PERICENTER": 255.5781, "MEAN_ANOMALY": 106.2285, "EPHEMERIS_TYPE": 0, "CLASSIFICATION_TYPE": "U", "NORAD_CAT_ID": 44231, "ELEMENT_SET_NO": 999, "REV_AT_EPOCH": 2417, "BSTAR": 0, "MEAN_MOTION_DOT": -2.46e-06, "MEAN_MOTION_DDOT": 0}, "tle": {"line1": "1 44231U 19027A   25342.59552417 -.00000246  00000+0  00000+0 0  9998", "line2": "2 44231   1.6514  74.7245 0008627 255.5781 106.2285  1.00268953 24170"}}, "geometry": {"type": "Point", "coordinates": [-144.04282327898486, 1.0179792688271452]}}, {"type": "Feature", "properties": {"norad_id": 44299, "name": "COSMOS 2534 (758)", "group": "gnss", "lat": 17.853386962257577, "lon": -152.0787111595585, "alt_km": 19130.51987060712, "timestamp": "2025-12-08T23:34:04.212594+00:00", "meta": {"OBJECT_NAME": "COSMOS 2534 (758)", "OBJECT_ID": "2019-030A", "EPOCH": "2025-12-08T11:39:55.883808", "MEAN_MOTION": 2.13102089, "ECCENTRICITY": 0.00089406, "INCLINATION": 64.3654, "RA_OF_ASC_NODE": 199.0364, "ARG_OF_PERICENTER": 283.6599, "MEAN_ANOMALY": 75.7329, "EPHEMERIS_TYPE": 0, "CLASSIFICATION_TYPE": "U", "NORAD_CAT_ID": 44299, "ELEMENT_SET_NO": 999, "REV_AT_EPOCH": 5085, "BSTAR": 0, "MEAN_MOTION_DOT": 4.7e-07, "MEAN_MOTION_DDOT": 0}, "tle": {"line1": "1 44299U 19030A   25342.48606347  .00000047  00000+0  00000+0 0  9994", "line2": "2 44299  64.3654 199.0364 0008940 283.6599  75.7329  2.13102089 50850"}}, "geometry": {"type": "Point", "coordinates": [-152.0787111595585, 17.853386962257577]}}, {"type": "Feature", "properties": {"norad_id": 44337, "name": "BEIDOU-3 IGSO-2 (C39)", "group": "gnss", "lat": 24.58520630980787, "lon": 179.08486140353602, "alt_km": 35939.76690466364, "timestamp": "2025-12-08T23:34:04.212608+00:00", "meta": {"OBJECT_NAME": "BEIDOU-3 IGSO-2 (C39)", "OBJECT_ID": "2019-035A", "EPOCH": "2025-12-08T04:07:53.847264", "MEAN_MOTION": 1.00272471, "ECCENTRICITY": 0.00374795, "INCLINATION": 55.2246, "RA_OF_ASC_NODE": 160.5411, "ARG_OF_PERICENTER": 202.4386, "MEAN_ANOMALY": 255.7158, "EPHEMERIS_TYPE": 0, "CLASSIFICATION_TYPE": "U", "NORAD_CAT_ID": 44337, "ELEMENT_SET_NO": 999, "REV_AT_EPOCH": 2375, "BSTAR": 0, "MEAN_MOTION_DOT": -7.9e-07, "MEAN_MOTION_DDOT": 0}, "tle": {"line1": "1 44337U 19035A   25342.17215101 -.00000079  00000+0  00000+0 0  9998", "line2": "2 44337  55.2246 160.5411 0037479 202.4386 255.7158  1.00272471 23754"}}, "geometry": {"type": "Point", "coordinates": [179.08486140353602, 24.58520630980787]}}, {"type": "Feature", "properties": {"norad_id": 44506, "name": "GPS BIII-2  (PRN 18)", "group": "gnss", "lat": -22.200622082170742, "lon": 174.85437979416872, "alt_km": 20033.581606806063, "timestamp": "2025-12-08T23:34:04.212622+00:00", "meta": {"OBJECT_NAME": "GPS BIII-2  (PRN 18)", "OBJECT_ID": "2019-056A", "EPOCH": "2025-12-07T10:30:03.799008", "MEAN_MOTION": 2.00565766, "ECCENTRICITY": 0.00577762, "INCLINATION": 55.723, "RA_OF_ASC_NODE": 338.7627, "ARG_OF_PERICENTER": 198.4737, "MEAN_ANOMALY": 333.4267, "EPHEMERIS_TYPE": 0, "CLASSIFICATION_TYPE": "U", "NORAD_CAT_ID": 44506, "ELEMENT_SET_NO": 999, "REV_AT_EPOCH": 4622, "BSTAR": 0, "MEAN_MOTION_DOT": -8.3e-07, "MEAN_MOTION_DDOT": 0}, "tle": {"line1": "1 44506U 19056A   25341.43754397 -.00000083  00000+0  00000+0 0  9997", "line2": "2 44506  55.7230 338.7627 0057776 198.4737 333.4267  2.00565766 46229"}}, "geometry": {"type": "Point", "coordinates": [174.85437979416872, -22.200622082170742]}}]}